ORBCOMM-X               
1 21576U 91050C   24247.80027165  .00001525  00000+0  47138-3 0  9992
2 21576  98.3834 313.7411 0003161 351.6999   8.4138 14.42700640740813
ORBCOMM FM01            
1 23545U 95017A   24247.87465226  .00016340  00000+0  20446-2 0  9991
2 23545  69.9660  64.4210 0003153  24.7468 335.3833 14.82336486569954
ORBCOMM FM02            
1 23546U 95017B   24247.93052420  .00018266  00000+0  22994-2 0  9996
2 23546  69.9671  83.8872 0004934  23.3600 336.7773 14.82047859569600
ORBCOMM FM08            
1 25112U 97084A   24247.50576023  .00005639  00000+0  16946-2 0  9996
2 25112  45.0143 301.8771 0009253 248.9880 110.9981 14.43394562399916
ORBCOMM FM10            
1 25113U 97084B   24247.52115354  .00005169  00000+0  15612-2 0  9992
2 25113  45.0156 303.7651 0006452 229.7110 130.3177 14.43278990400079
ORBCOMM FM11            
1 25114U 97084C   24247.55074266  .00005592  00000+0  16906-2 0  9999
2 25114  45.0141 303.7989 0007216 227.4599 132.5642 14.43123886400033
ORBCOMM FM12            
1 25115U 97084D   24247.51367033  .00005405  00000+0  16372-2 0  9993
2 25115  45.0150 303.7138 0006301 229.9580 130.0718 14.43076468399825
ORBCOMM FM09            
1 25116U 97084E   24247.52790063  .00005670  00000+0  17166-2 0  9994
2 25116  45.0152 304.3678 0006839 215.2217 144.8182 14.43040369400030
